{
  "norad_id": 47776,
  "name": "STARLINK-2209",
  "history": [
    {
      "epoch": "2026-03-28T18:34:36.036480Z",
      "apogee_km": 430.3716672339924,
      "perigee_km": 426.6661237644839,
      "latitude_deg": -6.898883722397684e-06,
      "longitude_deg": 7.974489975834738,
      "height_km": 428.4422328533444,
      "semi_major_axis_km": 6806.655895499238,
      "eccentricity": 0.0002722,
      "inclination_deg": 53.1591,
      "raan_deg": 112.8143,
      "arg_perigee_deg": 58.0916,
      "mean_anomaly_deg": 302.0356,
      "mean_motion_rev_day": 15.45973582
    }
  ]
}