{"fetched_at":"2026-03-30T09:12:31Z","count":15922,"tles":[{"name":"STARLINK-2209","line1":"1 47776U 21017BG  26087.77402820  .00072691  00000+0  14626-2 0  9990","line2":"2 47776  53.1591 112.8143 0002722  58.0916 302.0356 15.45973582280827","category":"Starlink"}]}